NUSAT-49 (KLARA DAN VO*)
1 60500U 24149AJ  26068.79810190  .00012912  00000+0  43568-3 0  9991
2 60500  97.3807 150.7380 0001132 286.7761  73.3356 15.30828857 86935
STARLINK-36122          
1 66952U 25286AD  26068.18172151  .00032008  00000+0  10886-2 0  9996
2 66952  53.1591   1.1881 0001013  73.1350 286.9762 15.30185779 15335
